GLOBALSTAR M068         
1 32266U 07048D   25247.78403932 -.00000077  00000+0  14843-3 0  9991
2 32266  51.9885  59.6164 0000755   6.1313  97.1938 12.62827663827613
GLOBALSTAR M079         
1 37188U 10054A   25247.45964840 -.00000080  00000+0  13480-3 0  9994
2 37188  52.0020 258.4704 0000542  98.5394  51.5229 12.62266512686464
GLOBALSTAR M074         
1 37189U 10054B   25247.47954826 -.00000077  00000+0  14919-3 0  9994
2 37189  52.0000 257.7213 0000288 122.2446 357.1295 12.62271297687072
GLOBALSTAR M076         
1 37190U 10054C   25247.43791970 -.00000086  00000+0  99361-4 0  9996
2 37190  52.0012 258.0258 0000515 122.1273  48.1228 12.62265121686789
GLOBALSTAR M077         
1 37191U 10054D   25247.66048284 -.00000110  00000+0 -36777-4 0  9996
2 37191  52.0053 214.2127 0000340  66.4520 104.2922 12.62323159687181
GLOBALSTAR M075         
1 37192U 10054E   25247.35212082 -.00000064  00000+0  21974-3 0  9991
2 37192  51.9951 300.5009 0000449 111.7515 329.0332 12.62267401685843
GLOBALSTAR M073         
1 37193U 10054F   25247.68883192 -.00000108  00000+0 -24934-4 0  9994
2 37193  52.0044 213.3518 0000475  83.0140  88.5203 12.62262423687877
GLOBALSTAR M083         
1 37739U 11033A   25247.91880705 -.00000099  00000+0  28979-4 0  9992
2 37739  51.9850 161.2746 0000727  65.3856  11.2371 12.62275365656927
GLOBALSTAR M088         
1 37740U 11033B   25247.81913064 -.00000092  00000+0  68197-4 0  9997
2 37740  52.0217  67.3120 0000765  76.5980  26.8906 12.62267741652453
GLOBALSTAR M091         
1 37741U 11033C   25247.65373985 -.00000097  00000+0  39204-4 0  9994
2 37741  52.0021  31.2004 0000903  79.7957 293.0858 12.62269989653227
GLOBALSTAR M085         
1 37742U 11033D   25247.58133462 -.00000084  00000+0  10960-3 0  9994
2 37742  52.0158 342.4673 0000750  88.8003  14.5405 12.62264315653728
GLOBALSTAR M081         
1 37743U 11033E   25247.77456418 -.00000090  00000+0  74330-4 0  9994
2 37743  51.9989 344.6413 0000817 104.8703  35.9395 12.62267831653894
GLOBALSTAR M089         
1 37744U 11033F   25247.49008225 -.00000063  00000+0  22565-3 0  9995
2 37744  51.9936 299.7214 0000463 143.9959 324.3441 12.62266274654708
GLOBALSTAR M084         
1 38040U 11080A   25247.28007712 -.00000095  00000+0  50129-4 0  9997
2 38040  52.0002 167.6872 0000345  95.9173  77.1998 12.62268621632658
GLOBALSTAR M080         
1 38041U 11080B   25247.94335551 -.00000110  00000+0 -32868-4 0  9995
2 38041  52.0054 167.2881 0000800  27.3181  50.5649 12.62268719632865
GLOBALSTAR M082         
1 38042U 11080C   25247.96393407 -.00000081  00000+0  12956-3 0  9993
2 38042  52.0067 122.6949 0000965  47.0084  55.3170 12.62268285633572
GLOBALSTAR M092         
1 38043U 11080D   25247.63610154 -.00000106  00000+0 -11612-4 0  9997
2 38043  52.0072 214.0739 0000296  62.2764 108.8739 12.62265603631982
GLOBALSTAR M090         
1 38044U 11080E   25247.82705035 -.00000077  00000+0  14831-3 0  9993
2 38044  52.0113 116.9744 0000891  69.2619  10.7088 12.62262170633674
GLOBALSTAR M086         
1 38045U 11080F   25247.93722679 -.00000085  00000+0  10664-3 0  9998
2 38045  51.9888 117.0327 0001468 114.3973 350.2290 12.62276606633639
GLOBALSTAR M097         
1 39072U 13005A   25247.70377805 -.00000107  00000+0 -16772-4 0  9993
2 39072  52.0064  32.3726 0000927  92.8444 267.2529 12.62265761580859
GLOBALSTAR M093         
1 39073U 13005B   25247.83608461 -.00000094  00000+0  51825-4 0  9995
2 39073  52.0124  25.2078 0001139  90.4818 269.6180 12.62264096580829
GLOBALSTAR M094         
1 39074U 13005C   25247.91511977 -.00000068  00000+0  19838-3 0  9998
2 39074  51.9964 299.3723 0000684  97.9948 262.0997 12.62269561582446
GLOBALSTAR M096         
1 39075U 13005D   25247.53232170 -.00000084  00000+0  11195-3 0  9998
2 39075  52.0105 349.1120 0000848  92.5732 267.5232 12.62266416581318
GLOBALSTAR M078         
1 39076U 13005E   25247.82291859 -.00000092  00000+0  66352-4 0  9995
2 39076  51.9867  72.6285 0001169  35.6176 324.4768 12.62259997579971
GLOBALSTAR M095         
1 39077U 13005F   25247.69052462 -.00000085  00000+0  10489-3 0  9997
2 39077  52.0078  70.2294 0001220  65.1329 294.9665 12.62259884579813
GLOBALSTAR M087         
1 52888U 22064A   25247.62562740 -.00000102  00000+0  92003-5 0  9999
2 52888  51.9978 211.8368 0000576  53.4500 306.6420 12.62301207155079
